STARLINK-2404           
1 48093U 21027B   26068.45445489  .00003172  00000+0  11922-3 0  9991
2 48093  53.1593 156.0452 0001212 104.0491 256.0644 15.30185413272627
TRANSPORTER-12 OBJECT AZ
1 62656U 25009AZ  26068.71026235  .00016057  00000+0  54903-3 0  9991
2 62656  97.3981 151.9913 0000987  45.3581 314.7740 15.30349724 63792
